H1 CPF  1  DLR 2021 09 28 10  7712 technosat            
H2  1704205 6203    42829 2021 09 28 00 00 00 2021 10 05 00 00 00    60 1 1  0 0 0
H9
10 0 59491  57600.000000  0       1696784.245       1900401.795      -6501913.950
10 0 59491  57660.000000  0       1557752.135       1489080.957      -6643088.682
10 0 59491  57720.000000  0       1408600.175       1072808.535      -6756345.626
10 0 59491  57780.000000  0       1249918.186        653409.420      -6841222.384
10 0 59491  57840.000000  0       1082350.782        232714.301      -6897374.409
10 0 59491  57900.000000  0        906594.747       -187448.174      -6924576.140
10 0 59491  57960.000000  0        723396.145       -605259.143      -6922721.644
10 0 59491  58020.000000  0        533547.217      -1018917.114      -6891824.842
10 0 59491  58080.000000  0        337883.051      -1426645.450      -6832019.331
10 0 59491  58140.000000  0        137278.056      -1826699.675      -6743557.792
10 0 59491  58200.000000  0        -67357.826      -2217374.672      -6626811.108
10 0 59491  58260.000000  0       -275083.148      -2597011.826      -6482266.983
10 0 59491  58320.000000  0       -484929.160      -2964005.944      -6310528.019
10 0 59491  58380.000000  0       -695904.152      -3316811.863      -6112309.369
10 0 59491  58440.000000  0       -906997.948      -3653950.822      -5888436.066
10 0 59491  58500.000000  0      -1117186.572      -3974016.616      -5639839.928
10 0 59491  58560.000000  0      -1325437.049      -4275681.490      -5367556.054
10 0 59491  58620.000000  0      -1530712.336      -4557701.739      -5072718.862
10 0 59491  58680.000000  0      -1731976.344      -4818922.970      -4756557.708
10 0 59491  58740.000000  0      -1928199.039      -5058284.988      -4420392.092
10 0 59491  58800.000000  0      -2118361.591      -5274826.294      -4065626.454
10 0 59491  58860.000000  0      -2301461.533      -5467688.162      -3693744.604
10 0 59491  58920.000000  0      -2476517.908      -5636118.287      -3306303.788
10 0 59491  58980.000000  0      -2642576.402      -5779473.995      -2904928.408
10 0 59491  59040.000000  0      -2798714.412      -5897224.976      -2491303.407
10 0 59491  59100.000000  0      -2944046.044      -5988955.544      -2067167.342
10 0 59491  59160.000000  0      -3077726.994      -6054366.383      -1634305.148
10 0 59491  59220.000000  0      -3198959.282      -6093275.739      -1194540.636
10 0 59491  59280.000000  0      -3306995.802      -6105620.055       -749728.743
10 0 59491  59340.000000  0      -3401144.631      -6091454.023       -301747.630
10 0 59491  59400.000000  0      -3480773.113      -6050950.091        147509.354
10 0 59491  59460.000000  0      -3545311.695      -5984397.426        596141.816
10 0 59491  59520.000000  0      -3594257.460      -5892200.298       1042250.532
10 0 59491  59580.000000  0      -3627177.366      -5774875.917       1483945.697
10 0 59491  59640.000000  0      -3643711.130      -5633051.689       1919355.140
10 0 59491  59700.000000  0      -3643573.748      -5467461.949       2346632.433
10 0 59491  59760.000000  0      -3626557.669      -5278944.226       2763964.886
10 0 59491  59820.000000  0      -3592534.582      -5068435.018       3169581.402
10 0 59491  59880.000000  0      -3541456.814      -4836965.112       3561760.149
10 0 59491  59940.000000  0      -3473358.327      -4585654.470       3938835.994
10 0 59491  60000.000000  0      -3388355.312      -4315706.710       4299207.693
10 0 59491  60060.000000  0      -3286646.366      -4028403.181       4641344.749
10 0 59491  60120.000000  0      -3168512.289      -3725096.745       4963793.908
10 0 59491  60180.000000  0      -3034315.459      -3407205.275       5265185.355
10 0 59491  60240.000000  0      -2884498.778      -3076204.893       5544238.502
10 0 59491  60300.000000  0      -2719584.241      -2733623.006       5799767.353
10 0 59491  60360.000000  0      -2540171.128      -2381031.183       6030685.486
10 0 59491  60420.000000  0      -2346933.830      -2020037.878       6236010.643
10 0 59491  60480.000000  0      -2140619.292      -1652281.019       6414868.906
10 0 59491  60540.000000  0      -1922044.040      -1279420.429       6566498.411
10 0 59491  60600.000000  0      -1692090.856       -903130.183       6690252.446
10 0 59491  60660.000000  0      -1451705.173       -525091.033       6785601.991
10 0 59491  60720.000000  0      -1201891.240       -146982.983       6852137.877
10 0 59491  60780.000000  0       -943707.966        229522.166       6889572.606
10 0 59491  60840.000000  0       -678264.437        602768.266       6897741.656
10 0 59491  60900.000000  0       -406715.131        971122.164       6876604.245
10 0 59491  60960.000000  0       -130254.904       1332980.894       6826243.605
10 0 59491  61020.000000  0        149886.279       1686778.742       6746866.783
10 0 59491  61080.000000  0        432448.864       2030994.127       6638803.869
10 0 59491  61140.000000  0        716149.368       2364156.190       6502506.717
10 0 59491  61200.000000  0        999686.221       2684851.164       6338547.250
10 0 59491  61260.000000  0       1281745.761       2991728.515       6147615.257
10 0 59491  61320.000000  0       1561008.346       3283506.819       5930515.692
10 0 59491  61380.000000  0       1836154.577       3558979.322       5688165.469
10 0 59491  61440.000000  0       2105871.606       3817019.166       5421589.789
10 0 59491  61500.000000  0       2368859.553       4056584.269       5131917.959
10 0 59491  61560.000000  0       2623837.909       4276721.785       4820378.661
10 0 59491  61620.000000  0       2869551.860       4476572.069       4488294.779
10 0 59491  61680.000000  0       3104778.517       4655372.242       4137077.872
10 0 59491  61740.000000  0       3328333.094       4812459.330       3768222.257
10 0 59491  61800.000000  0       3539075.043       4947273.016       3383298.771
10 0 59491  61860.000000  0       3735914.187       5059358.016       2983947.935
10 0 59491  61920.000000  0       3917816.540       5148365.656       2571872.528
10 0 59491  61980.000000  0       4083809.608       5214054.774       2148830.068
10 0 59491  62040.000000  0       4232987.519       5256292.273       1716625.234
10 0 59491  62100.000000  0       4364516.027       5275053.292       1277102.022
10 0 59491  62160.000000  0       4477637.206       5270420.826        832135.444
10 0 59491  62220.000000  0       4571673.612       5242584.611        383623.045
10 0 59491  62280.000000  0       4646032.026       5191839.420        -66523.546
10 0 59491  62340.000000  0       4700206.838       5118582.883       -516387.041
10 0 59491  62400.000000  0       4733783.021       5023312.830       -964052.962
10 0 59491  62460.000000  0       4746438.645       4906624.165      -1407618.088
10 0 59491  62520.000000  0       4737946.890       4769205.280      -1845198.814
10 0 59491  62580.000000  0       4708177.615       4611834.018      -2274939.397
10 0 59491  62640.000000  0       4657098.425       4435373.210      -2695020.012
10 0 59491  62700.000000  0       4584775.258       4240765.856      -3103664.622
10 0 59491  62760.000000  0       4491372.424       4029029.926      -3499148.587
10 0 59491  62820.000000  0       4377152.151       3801252.843      -3879805.908
10 0 59491  62880.000000  0       4242473.739       3558585.741      -4244036.149
10 0 59491  62940.000000  0       4087792.247       3302237.462      -4590311.055
10 0 59491  63000.000000  0       3913656.708       3033468.354      -4917180.765
10 0 59491  63060.000000  0       3720707.949       2753583.937      -5223279.646
10 0 59491  63120.000000  0       3509675.940       2463928.438      -5507331.722
10 0 59491  63180.000000  0       3281376.762       2165878.226      -5768155.627
10 0 59491  63240.000000  0       3036709.219       1860835.200      -6004669.132
10 0 59491  63300.000000  0       2776651.065       1550220.165      -6215893.218
10 0 59491  63360.000000  0       2502254.911       1235466.245      -6400955.683
10 0 59491  63420.000000  0       2214643.842        918012.340      -6559094.287
10 0 59491  63480.000000  0       1915006.783        599296.670      -6689659.445
10 0 59491  63540.000000  0       1604593.632        280750.440      -6792116.565
10 0 59491  63600.000000  0       1284710.056        -36208.453      -6866048.029
10 0 59491  63660.000000  0        956711.955       -350181.613      -6911154.596
10 0 59491  63720.000000  0        621999.789       -659796.130      -6927256.266
10 0 59491  63780.000000  0        282012.769       -963710.351      -6914292.792
10 0 59491  63840.000000  0        -61777.145      -1260619.469      -6872323.762
10 0 59491  63900.000000  0       -407871.394      -1549260.881      -6801528.317
10 0 59491  63960.000000  0       -754751.186      -1828419.385      -6702204.475
10 0 59491  64020.000000  0      -1100883.978      -2096932.167      -6574767.956
10 0 59491  64080.000000  0      -1444730.052      -2353693.542      -6419750.554
10 0 59491  64140.000000  0      -1784749.145      -2597659.370      -6237798.067
10 0 59491  64200.000000  0      -2119407.128      -2827851.202      -6029667.884
10 0 59491  64260.000000  0      -2447182.745      -3043360.163      -5796226.157
10 0 59491  64320.000000  0      -2766574.407      -3243350.555      -5538444.587
10 0 59491  64380.000000  0      -3076107.036      -3427063.185      -5257396.752
10 0 59491  64440.000000  0      -3374338.853      -3593818.320      -4954253.930
10 0 59491  64500.000000  0      -3659868.071      -3743018.266      -4630280.540
10 0 59491  64560.000000  0      -3931339.474      -3874149.593      -4286829.209
10 0 59491  64620.000000  0      -4187450.897      -3986784.997      -3925335.452
10 0 59491  64680.000000  0      -4426959.560      -4080584.785      -3547311.976
10 0 59491  64740.000000  0      -4648688.212      -4155297.964      -3154342.588
99
